ONEWEB-0446             
1 51640U 22012U   25286.45961167 -.00000249  00000+0 -74848-3 0  9995
2 51640  87.8750  85.4801 0001826  92.7526 267.3811 13.10368972177011
ONEWEB-0448             
1 51641U 22012V   25286.46458567 -.00000504  00000+0 -14794-2 0  9999
2 51641  87.8757  85.4787 0001313  94.2636 265.8642 13.10369451176985
ONEWEB-0449             
1 51642U 22012W   25286.46956121 -.00000528  00000+0 -15499-2 0  9998
2 51642  87.8747  85.4476 0001499  75.3067 284.8226 13.10371164176997
ONEWEB-0451             
1 51643U 22012X   25286.64410427  .00000125  00000+0  28996-3 0  9991
2 51643  87.9102  54.8549 0001636  93.8052 266.3266 13.17648232181194
ONEWEB-0452             
1 51644U 22012Y   25286.64239640 -.00000492  00000+0 -13012-2 0  9999
2 51644  87.9093  54.9152 0001472  93.8026 266.3274 13.17650388181200
ONEWEB-0456             
1 51646U 22012AA  25286.47951577 -.00000481  00000+0 -14135-2 0  9997
2 51646  87.8762  85.4101 0001536  98.9244 261.2057 13.10372895177032
ONEWEB-0457             
1 51647U 22012AB  25286.45629403 -.00000086  00000+0 -28183-3 0  9996
2 51647  87.8748  85.4685 0001806  80.4793 279.6538 13.10368515177030
ONEWEB-0458             
1 51648U 22012AC  25286.47786000 -.00000787  00000+0 -22901-2 0  9995
2 51648  87.8754  85.4353 0001420  88.4222 271.7068 13.10373684176995
